ORBCOMM FM20 [+]        
1 25416U 98046D   24029.04167934  .00001362  00000+0  52473-3 0  9991
2 25416  44.9959  48.8530 0002333 268.5415  91.5165 14.34826418331656
ORBCOMM FM16 [-]        
1 25417U 98046E   24029.89989424  .00001923  00000+0  70837-3 0  9998
2 25417  44.9951  41.2789 0006007 280.9817  79.0355 14.35668133331705
ORBCOMM FM14 [-]        
1 25419U 98046G   24029.04311427  .00002049  00000+0  75372-3 0  9998
2 25419  44.9971  48.3922 0004434 270.6251 116.1040 14.35540921331546
ORBCOMM FM21 [-]        
1 25475U 98053A   24029.33161314  .00001734  00000+0  65378-3 0  9993
2 25475  45.0084 135.5605 0002128 220.2373 139.8316 14.34899569324674
ORBCOMM FM22 [-]        
1 25476U 98053B   24029.41322285  .00002075  00000+0  76583-3 0  9998
2 25476  45.0077 132.8439 0004018 217.0830 142.9740 14.35337450324677
ORBCOMM FM23 [-]        
1 25477U 98053C   24029.43158522  .00001880  00000+0  70448-3 0  9999
2 25477  45.0078 137.5388 0003126 214.2104 145.8542 14.34910167324837
